{
  "norad_id": 62566,
  "name": "STARLINK-11525 [DTC]",
  "history": [
    {
      "epoch": "2026-03-28T20:51:09.766656Z",
      "apogee_km": 357.69772360265233,
      "perigee_km": 355.14263260927873,
      "latitude_deg": 4.640992704880709e-05,
      "longitude_deg": -114.32737131422249,
      "height_km": 356.5156807468371,
      "semi_major_axis_km": 6734.557178105965,
      "eccentricity": 0.0001897,
      "inclination_deg": 42.9991,
      "raan_deg": 24.7464,
      "arg_perigee_deg": 255.3614,
      "mean_anomaly_deg": 104.7044,
      "mean_motion_rev_day": 15.708662
    }
  ]
}